ORBCOMM FM33            
1 25983U 99065D   24135.59737951  .00002757  00000+0  95489-3 0  9995
2 25983  45.0284  90.6209 0008393 227.5822 300.9443 14.37701610278650
ORBCOMM FM36            
1 25984U 99065E   24135.40161422  .00001768  00000+0  65654-3 0  9992
2 25984  45.0376 177.1165 0001223 100.8908 259.2077 14.35595108277062
ORBCOMM FM35            
1 25985U 99065F   24135.51430138  .00002123  00000+0  78509-3 0  9997
2 25985  45.0377 179.2466 0004486 227.9983 132.0482 14.35167728277475
ORBCOMM FM38            
1 33060U 08031A   24135.48868785  .00003725  00000+0  54452-3 0  9992
2 33060  48.4415  49.9263 0005281 133.3042 226.8313 14.77566632855713
ORBCOMM FM41            
1 33061U 08031B   24135.49945792  .00004052  00000+0  59355-3 0  9999
2 33061  48.4450  56.5057 0004353 118.1125  52.3467 14.77295046855215
ORBCOMM FM29            
1 33062U 08031C   24135.21422719  .00003970  00000+0  58298-3 0  9992
2 33062  48.4398  65.8922 0006186 114.2010  38.9198 14.77225641855087
ORBCOMM FM39            
1 33063U 08031D   24135.55947856  .00004335  00000+0  64867-3 0  9999
2 33063  48.4405  84.8039 0007069  89.0021 271.1702 14.76230307854837
